{
  "type": "FeatureCollection",
  "features": [
    {
      "type": "Feature",
      "properties": {
        "norad_id": 41773,
        "name": "SKYSAT-C2",
        "group": "resource",
        "lat": -21.87453214332085,
        "lon": -162.99436303740123,
        "alt_km": 461.2989208499548,
        "timestamp": "2025-12-21T16:47:54.386269+00:00",
        "meta_object_name": "SKYSAT-C2",
        "meta_object_id": "2016-058D",
        "meta_epoch": "2025-12-21T01:51:51.666048",
        "meta_mean_motion": 15.37443909,
        "meta_eccentricity": 0.00032987,
        "meta_inclination": 97.0347,
        "meta_ra_of_asc_node": 19.2514,
        "meta_arg_of_pericenter": 10.7695,
        "meta_mean_anomaly": 349.3621,
        "meta_ephemeris_type": 0,
        "meta_classification_type": "U",
        "meta_norad_cat_id": 41773,
        "meta_element_set_no": 999,
        "meta_rev_at_epoch": 51764,
        "meta_bstar": 0.00022753944,
        "meta_mean_motion_dot": 8.279e-05,
        "meta_mean_motion_ddot": 0,
        "tle_line1": "1 41773U 16058D   25355.07768132  .00008279  00000+0  22754-3 0  9994",
        "tle_line2": "2 41773  97.0347  19.2514 0003298  10.7695 349.3621 15.37443909517642"
      },
      "geometry": {
        "type": "Point",
        "coordinates": [
          -162.99436303740123,
          -21.87453214332085
        ]
      }
    },
    {
      "type": "Feature",
      "properties": {
        "norad_id": 41774,
        "name": "SKYSAT-C3",
        "group": "resource",
        "lat": -79.30772277571953,
        "lon": 168.93474451258402,
        "alt_km": 440.90330376163456,
        "timestamp": "2025-12-21T16:47:54.386286+00:00",
        "meta_object_name": "SKYSAT-C3",
        "meta_object_id": "2016-058E",
        "meta_epoch": "2025-12-20T08:34:23.687904",
        "meta_mean_motion": 15.44652608,
        "meta_eccentricity": 0.0001932,
        "meta_inclination": 96.9286,
        "meta_ra_of_asc_node": 27.7493,
        "meta_arg_of_pericenter": 107.595,
        "meta_mean_anomaly": 252.5511,
        "meta_ephemeris_type": 0,
        "meta_classification_type": "U",
        "meta_norad_cat_id": 41774,
        "meta_element_set_no": 999,
        "meta_rev_at_epoch": 51843,
        "meta_bstar": 0.0002841356,
        "meta_mean_motion_dot": 0.00013163,
        "meta_mean_motion_ddot": 0,
        "tle_line1": "1 41774U 16058E   25354.35721861  .00013163  00000+0  28414-3 0  9990",
        "tle_line2": "2 41774  96.9286  27.7493 0001932 107.5950 252.5511 15.44652608518432"
      },
      "geometry": {
        "type": "Point",
        "coordinates": [
          168.93474451258402,
          -79.30772277571953
        ]
      }
    },
    {
      "type": "Feature",
      "properties": {
        "norad_id": 41785,
        "name": "ALSAT 1B",
        "group": "resource",
        "lat": -52.84870693822988,
        "lon": 17.498963447914342,
        "alt_km": 666.4605731421925,
        "timestamp": "2025-12-21T16:47:54.386303+00:00",
        "meta_object_name": "ALSAT 1B",
        "meta_object_id": "2016-059C",
        "meta_epoch": "2025-12-21T12:08:50.896896",
        "meta_mean_motion": 14.72084481,
        "meta_eccentricity": 0.0010808,
        "meta_inclination": 97.7804,
        "meta_ra_of_asc_node": 6.9177,
        "meta_arg_of_pericenter": 78.7752,
        "meta_mean_anomaly": 281.467,
        "meta_ephemeris_type": 0,
        "meta_classification_type": "U",
        "meta_norad_cat_id": 41785,
        "meta_element_set_no": 999,
        "meta_rev_at_epoch": 49443,
        "meta_bstar": 8.0002e-05,
        "meta_mean_motion_dot": 4.56e-06,
        "meta_mean_motion_ddot": 0,
        "tle_line1": "1 41785U 16059C   25355.50614464  .00000456  00000+0  80002-4 0  9994",
        "tle_line2": "2 41785  97.7804   6.9177 0010808  78.7752 281.4670 14.72084481494436"
      },
      "geometry": {
        "type": "Point",
        "coordinates": [
          17.498963447914342,
          -52.84870693822988
        ]
      }
    },
    {
      "type": "Feature",
      "properties": {
        "norad_id": 41787,
        "name": "PATHFINDER 1",
        "group": "resource",
        "lat": -51.587016829891866,
        "lon": 168.08559574099675,
        "alt_km": 697.5371226762227,
        "timestamp": "2025-12-21T16:47:54.386320+00:00",
        "meta_object_name": "PATHFINDER 1",
        "meta_object_id": "2016-059E",
        "meta_epoch": "2025-12-21T12:28:17.461056",
        "meta_mean_motion": 14.67335413,
        "meta_eccentricity": 0.0029796,
        "meta_inclination": 97.8136,
        "meta_ra_of_asc_node": 357.8858,
        "meta_arg_of_pericenter": 54.4562,
        "meta_mean_anomaly": 305.9415,
        "meta_ephemeris_type": 0,
        "meta_classification_type": "U",
        "meta_norad_cat_id": 41787,
        "meta_element_set_no": 999,
        "meta_rev_at_epoch": 49365,
        "meta_bstar": 0.00011889,
        "meta_mean_motion_dot": 6.29e-06,
        "meta_mean_motion_ddot": 0,
        "tle_line1": "1 41787U 16059E   25355.51964654  .00000629  00000+0  11889-3 0  9994",
        "tle_line2": "2 41787  97.8136 357.8858 0029796  54.4562 305.9415 14.67335413493657"
      },
      "geometry": {
        "type": "Point",
        "coordinates": [
          168.08559574099675,
          -51.587016829891866
        ]
      }
    },
    {
      "type": "Feature",
      "properties": {
        "norad_id": 41790,
        "name": "SCATSAT 1",
        "group": "resource",
        "lat": -58.89699736664333,
        "lon": -141.25099477175712,
        "alt_km": 669.999162370339,
        "timestamp": "2025-12-21T16:47:54.386339+00:00",
        "meta_object_name": "SCATSAT 1",
        "meta_object_id": "2016-059H",
        "meta_epoch": "2025-12-21T02:43:55.700832",
        "meta_mean_motion": 14.78961089,
        "meta_eccentricity": 0.00564593,
        "meta_inclination": 98.1451,
        "meta_ra_of_asc_node": 51.8883,
        "meta_arg_of_pericenter": 101.6086,
        "meta_mean_anomaly": 259.147,
        "meta_ephemeris_type": 0,
        "meta_classification_type": "U",
        "meta_norad_cat_id": 41790,
        "meta_element_set_no": 999,
        "meta_rev_at_epoch": 7526,
        "meta_bstar": 0.00013897435,
        "meta_mean_motion_dot": 9.97e-06,
        "meta_mean_motion_ddot": 0,
        "tle_line1": "1 41790U 16059H   25355.11383913  .00000997  00000+0  13897-3 0  9996",
        "tle_line2": "2 41790  98.1451  51.8883 0056459 101.6086 259.1470 14.78961089 75266"
      },
      "geometry": {
        "type": "Point",
        "coordinates": [
          -141.25099477175712,
          -58.89699736664333
        ]
      }
    },
    {
      "type": "Feature",
      "properties": {
        "norad_id": 41875,
        "name": "GOKTURK 1A",
        "group": "resource",
        "lat": 16.47161025909311,
        "lon": 70.37195951468779,
        "alt_km": 684.6549388935591,
        "timestamp": "2025-12-21T16:47:54.386356+00:00",
        "meta_object_name": "GOKTURK 1A",
        "meta_object_id": "2016-073A",
        "meta_epoch": "2025-12-21T12:46:16.799232",
        "meta_mean_motion": 14.62787509,
        "meta_eccentricity": 0.0001305,
        "meta_inclination": 98.1436,
        "meta_ra_of_asc_node": 247.7799,
        "meta_arg_of_pericenter": 83.2434,
        "meta_mean_anomaly": 276.8916,
        "meta_ephemeris_type": 0,
        "meta_classification_type": "U",
        "meta_norad_cat_id": 41875,
        "meta_element_set_no": 999,
        "meta_rev_at_epoch": 48285,
        "meta_bstar": 1.5338e-05,
        "meta_mean_motion_dot": 3.1e-07,
        "meta_mean_motion_ddot": 0,
        "tle_line1": "1 41875U 16073A   25355.53213888  .00000031  00000+0  15338-4 0  9997",
        "tle_line2": "2 41875  98.1436 247.7799 0001305  83.2434 276.8916 14.62787509482851"
      },
      "geometry": {
        "type": "Point",
        "coordinates": [
          70.37195951468779,
          16.47161025909311
        ]
      }
    },
    {
      "type": "Feature",
      "properties": {
        "norad_id": 41877,
        "name": "RESOURCESAT-2A",
        "group": "resource",
        "lat": -33.676079882369784,
        "lon": 71.41135220971556,
        "alt_km": 826.45730325356,
        "timestamp": "2025-12-21T16:47:54.386367+00:00",
        "meta_object_name": "RESOURCESAT-2A",
        "meta_object_id": "2016-074A",
        "meta_epoch": "2025-12-21T11:53:28.040352",
        "meta_mean_motion": 14.21602927,
        "meta_eccentricity": 0.0001421,
        "meta_inclination": 98.7752,
        "meta_ra_of_asc_node": 65.3007,
        "meta_arg_of_pericenter": 213.8021,
        "meta_mean_anomaly": 146.3065,
        "meta_ephemeris_type": 0,
        "meta_classification_type": "U",
        "meta_norad_cat_id": 41877,
        "meta_element_set_no": 999,
        "meta_rev_at_epoch": 46905,
        "meta_bstar": 7.5447e-05,
        "meta_mean_motion_dot": 1.21e-06,
        "meta_mean_motion_ddot": 0,
        "tle_line1": "1 41877U 16074A   25355.49546343  .00000121  00000+0  75447-4 0  9997",
        "tle_line2": "2 41877  98.7752  65.3007 0001421 213.8021 146.3065 14.21602927469056"
      },
      "geometry": {
        "type": "Point",
        "coordinates": [
          71.41135220971556,
          -33.676079882369784
        ]
      }
    }
  ]
}